NORAD_CAT_ID,OBJECT_NAME,OBJECT_TYPE,EPOCH,MEAN_MOTION,ECCENTRICITY,INCLINATION,RA_OF_ASC_NODE,ARG_OF_PERICENTER,MEAN_ANOMALY,BSTAR,MEAN_MOTION_DOT,MEAN_MOTION_DDOT,TLE_LINE0,TLE_LINE1,TLE_LINE2,SEMIMAJOR_AXIS,PERIOD,APOGEE,PERIGEE,DECAYED
56482.0,STARLINK-6220,PAYLOAD,2024-02-05 21:57:06,14.98329734,0.0002777,69.998,247.6555,268.3351,91.749,-1.9257e-05,-3.23e-06,0.0,0 STARLINK-6220,1 56482U 23064AL  24036.91465647 -.00000323  00000-0 -19257-4 0  9995,2 56482  69.9980 247.6555 0002777 268.3351  91.7490 14.98329734 41480,6950.194,96.107,573.989,570.129,0.0
56482.0,STARLINK-6220,PAYLOAD,2024-02-06 13:58:26,14.98332442,0.0002788,69.998,245.972,268.3252,91.7588,8.3296e-08,-9.2e-07,0.0,0 STARLINK-6220,1 56482U 23064AL  24037.58225350 -.00000092  00000-0  83296-7 0  9993,2 56482  69.9980 245.9720 0002788 268.3252  91.7588 14.98332442 41586,6950.185,96.107,573.988,570.113,0.0
56482.0,STARLINK-6220,PAYLOAD,2024-02-06 18:46:50,14.98332081,0.0002797,69.998,245.4671,268.4062,91.6777,-3.6915e-06,-1.37e-06,0.0,0 STARLINK-6220,1 56482U 23064AL  24037.78253349 -.00000137  00000-0 -36915-5 0  9999,2 56482  69.9980 245.4671 0002797 268.4062  91.6777 14.98332081 41977,6950.186,96.107,573.995,570.107,0.0
56482.0,STARLINK-6220,PAYLOAD,2024-02-06 21:59:06,14.98332858,0.0002791,69.998,245.1305,268.5303,91.5537,6.2559e-06,-1.8e-07,0.0,0 STARLINK-6220,1 56482U 23064AL  24037.91605253 -.00000018  00000-0  62559-5 0  9999,2 56482  69.9980 245.1305 0002791 268.5303  91.5537 14.98332858 41639,6950.184,96.107,573.989,570.109,0.0
56482.0,STARLINK-6220,PAYLOAD,2024-02-07 14:00:27,14.9832878,0.0002766,69.9981,243.4467,268.382,91.7022,9.0749e-06,1.5e-07,0.0,0 STARLINK-6220,1 56482U 23064AL  24038.58365436  .00000015  00000-0  90749-5 0  9997,2 56482  69.9981 243.4467 0002766 268.3820  91.7022 14.98328780 41735,6950.197,96.107,573.984,570.139,0.0
56482.0,STARLINK-6220,PAYLOAD,2024-02-07 20:25:00,14.98328632,0.0002781,69.9982,242.7738,269.9333,90.1507,4.5037e-06,-3.9e-07,0.0,0 STARLINK-6220,1 56482U 23064AL  24038.85069481 -.00000039  00000-0  45037-5 0  9995,2 56482  69.9982 242.7738 0002781 269.9333  90.1507 14.98328632 42134,6950.197,96.107,573.995,570.129,0.0
56482.0,STARLINK-6220,PAYLOAD,2024-02-07 22:01:08,14.98328339,0.0002802,69.9982,242.6055,270.1616,89.9222,-1.355e-06,-1.09e-06,0.0,0 STARLINK-6220,1 56482U 23064AL  24038.91745519 -.00000109  00000-0 -13550-5 0  9999,2 56482  69.9982 242.6055 0002802 270.1616  89.9222 14.98328339 41781,6950.198,96.107,574.01,570.116,0.0
56482.0,STARLINK-6220,PAYLOAD,2024-02-08 14:02:28,14.98332692,0.0002798,69.9982,240.9222,270.525,89.5588,8.6173e-06,1e-07,0.0,0 STARLINK-6220,1 56482U 23064AL  24039.58505181  .00000010  00000-0  86173-5 0  9992,2 56482  69.9982 240.9222 0002798 270.5250  89.5588 14.98332692 41889,6950.185,96.107,573.994,570.105,0.0
56482.0,STARLINK-6220,PAYLOAD,2024-02-08 22:03:08,14.98333289,0.0002795,69.9984,240.0806,270.7513,89.3326,1.6571e-05,1.05e-06,0.0,0 STARLINK-6220,1 56482U 23064AL  24039.91885053  .00000105  00000-0  16571-4 0  9997,2 56482  69.9984 240.0806 0002795 270.7513  89.3326 14.98333289 41938,6950.183,96.107,573.99,570.105,0.0
56482.0,STARLINK-6220,PAYLOAD,2024-02-08 23:39:16,14.9833361,0.0002796,69.9984,239.9122,270.796,89.2879,1.9776e-05,1.43e-06,0.0,0 STARLINK-6220,1 56482U 23064AL  24039.98561008  .00000143  00000-0  19776-4 0  9997,2 56482  69.9984 239.9122 0002796 270.7960  89.2879 14.98333610 42305,6950.182,96.107,573.99,570.103,0.0
56482.0,STARLINK-6220,PAYLOAD,2024-02-09 14:04:29,14.98329419,0.00028,69.9985,238.3973,270.8704,89.2134,1.756e-05,1.17e-06,0.0,0 STARLINK-6220,1 56482U 23064AL  24040.58645189  .00000117  00000-0  17560-4 0  9998,2 56482  69.9985 238.3973 0002800 270.8704  89.2134 14.98329419 42032,6950.195,96.107,574.006,570.114,0.0
56482.0,STARLINK-6220,PAYLOAD,2024-02-10 12:30:22,14.98327421,0.000265,69.9993,236.0412,264.3077,95.778,-4.8081e-05,-6.67e-06,0.0,0 STARLINK-6220,1 56482U 23064AL  24041.52109494 -.00000667  00000-0 -48081-4 0  9991,2 56482  69.9993 236.0412 0002650 264.3077  95.7780 14.98327421 42533,6950.201,96.107,573.908,570.224,0.0
56482.0,STARLINK-6220,PAYLOAD,2024-02-10 14:06:30,14.9832716,0.0002665,69.9992,235.8728,263.1354,96.9502,-5.1574e-05,-7.08e-06,0.0,0 STARLINK-6220,1 56482U 23064AL  24041.58785518 -.00000708  00000-0 -51574-4 0  9991,2 56482  69.9992 235.8728 0002665 263.1354  96.9502 14.98327160 42186,6950.202,96.107,573.919,570.214,0.0
56482.0,STARLINK-6220,PAYLOAD,2024-02-10 22:07:11,14.98325503,0.0002705,69.9993,235.0312,263.141,96.9442,-6.7296e-05,-8.96e-06,0.0,0 STARLINK-6220,1 56482U 23064AL  24041.92165721 -.00000896  00000-0 -67296-4 0  9993,2 56482  69.9993 235.0312 0002705 263.1410  96.9442 14.98325503 42234,6950.207,96.107,573.952,570.192,0.0
56482.0,STARLINK-6220,PAYLOAD,2024-02-11 12:32:23,14.98329324,0.0002801,69.9991,233.5161,264.8319,95.252,-2.5675e-06,-1.24e-06,0.0,0 STARLINK-6220,1 56482U 23064AL  24042.52249359 -.00000124  00000-0 -25675-5 0  9990,2 56482  69.9991 233.5161 0002801 264.8319  95.2520 14.98329324 42683,6950.195,96.107,574.007,570.113,0.0
56482.0,STARLINK-6220,PAYLOAD,2024-02-11 14:08:31,14.98329769,0.0002791,69.9992,233.3478,264.6498,95.4343,3.5354e-06,-5.1e-07,0.0,0 STARLINK-6220,1 56482U 23064AL  24042.58925316 -.00000051  00000-0  35354-5 0  9993,2 56482  69.9992 233.3478 0002791 264.6498  95.4343 14.98329769 42337,6950.194,96.107,573.998,570.119,0.0
56482.0,STARLINK-6220,PAYLOAD,2024-02-11 22:09:11,14.98330079,0.000278,69.9994,232.5065,265.2391,94.845,9.2223e-06,1.7e-07,0.0,0 STARLINK-6220,1 56482U 23064AL  24042.92305284  .00000017  00000-0  92223-5 0  9996,2 56482  69.9994 232.5065 0002780 265.2391  94.8450 14.98330079 42382,6950.193,96.107,573.99,570.125,0.0
56482.0,STARLINK-6220,PAYLOAD,2024-02-12 12:34:24,14.98329795,0.0002916,69.9992,230.9912,268.0212,92.0613,6.573e-05,6.91e-06,0.0,0 STARLINK-6220,1 56482U 23064AL  24043.52389137  .00000691  00000-0  65730-4 0  9992,2 56482  69.9992 230.9912 0002916 268.0212  92.0613 14.98329795 42831,6950.194,96.107,574.085,570.032,0.0
56482.0,STARLINK-6220,PAYLOAD,2024-02-12 14:10:32,14.98330093,0.0002917,69.9991,230.8229,269.1247,90.9578,6.7653e-05,7.14e-06,0.0,0 STARLINK-6220,1 56482U 23064AL  24043.59065116  .00000714  00000-0  67653-4 0  9999,2 56482  69.9991 230.8229 0002917 269.1247  90.9578 14.98330093 42482,6950.193,96.107,574.085,570.03,0.0
56482.0,STARLINK-6220,PAYLOAD,2024-02-12 22:11:12,14.98331497,0.0002907,69.9991,229.9812,269.094,90.9886,7.6172e-05,8.16e-06,0.0,0 STARLINK-6220,1 56482U 23064AL  24043.92444969  .00000816  00000-0  76172-4 0  9992,2 56482  69.9991 229.9812 0002907 269.0940  90.9886 14.98331497 42534,6950.188,96.107,574.074,570.033,0.0
56482.0,STARLINK-6220,PAYLOAD,2024-02-13 12:36:25,14.98330507,0.0002833,69.9993,228.466,269.5204,90.563,-1.3361e-05,-2.52e-06,0.0,0 STARLINK-6220,1 56482U 23064AL  24044.52529263 -.00000252  00000-0 -13361-4 0  9997,2 56482  69.9993 228.4660 0002833 269.5204  90.5630 14.98330507 42980,6950.191,96.107,574.025,570.087,0.0
56482.0,STARLINK-6220,PAYLOAD,2024-02-13 14:12:33,14.98329797,0.0002857,69.9993,228.2978,269.864,90.2191,-2.2828e-05,-3.65e-06,0.0,0 STARLINK-6220,1 56482U 23064AL  24044.59205332 -.00000365  00000-0 -22828-4 0  9995,2 56482  69.9993 228.2978 0002857 269.8640  90.2191 14.98329797 42633,6950.194,96.107,574.044,570.073,0.0
56482.0,STARLINK-6220,PAYLOAD,2024-02-13 22:13:13,14.9832987,0.0002862,69.9993,227.4565,269.357,90.7261,-2.0507e-05,-3.38e-06,0.0,0 STARLINK-6220,1 56482U 23064AL  24044.92585306 -.00000338  00000-0 -20507-4 0  9996,2 56482  69.9993 227.4565 0002862 269.3570  90.7261 14.98329870 42689,6950.193,96.107,574.047,570.069,0.0
56482.0,STARLINK-6220,PAYLOAD,2024-02-14 14:14:33,14.98334938,0.0002927,69.9991,225.773,270.213,89.8694,-2.5136e-06,-1.23e-06,0.0,0 STARLINK-6220,1 56482U 23064AL  24045.59344799 -.00000123  00000-0 -25136-5 0  9995,2 56482  69.9991 225.7730 0002927 270.2130  89.8694 14.98334938 42788,6950.178,96.107,574.077,570.008,0.0
56482.0,STARLINK-6220,PAYLOAD,2024-02-14 19:02:58,14.98335214,0.0002925,69.9992,225.2681,270.2718,89.8106,2.5045e-06,-6.3e-07,0.0,0 STARLINK-6220,1 56482U 23064AL  24045.79372705 -.00000063  00000-0  25045-5 0  9996,2 56482  69.9992 225.2681 0002925 270.2718  89.8106 14.98335214 43179,6950.177,96.107,574.075,570.009,0.0
56482.0,STARLINK-6220,PAYLOAD,2024-02-14 22:15:14,14.98335664,0.0002924,69.9992,224.9313,270.8045,89.2779,8.7461e-06,1.1e-07,0.0,0 STARLINK-6220,1 56482U 23064AL  24045.92724618  .00000011  00000-0  87461-5 0  9997,2 56482  69.9992 224.9313 0002924 270.8045  89.2779 14.98335664 42836,6950.175,96.107,574.073,570.008,0.0
56482.0,STARLINK-6220,PAYLOAD,2024-02-15 11:04:18,14.98328193,0.0002896,69.9993,223.5848,270.6101,89.4726,5.6149e-06,-2.6e-07,0.0,0 STARLINK-6220,1 56482U 23064AL  24046.46133004 -.00000026  00000-0  56149-5 0  9996,2 56482  69.9993 223.5848 0002896 270.6101  89.4726 14.98328193 43276,6950.198,96.107,574.076,570.051,0.0
56482.0,STARLINK-6220,PAYLOAD,2024-02-15 14:16:35,14.98328677,0.0002886,69.9994,223.2481,270.7743,89.3086,1.0727e-05,3.5e-07,0.0,0 STARLINK-6220,1 56482U 23064AL  24046.59484967  .00000035  00000-0  10727-4 0  9997,2 56482  69.9994 223.2481 0002886 270.7743  89.3086 14.98328677 42936,6950.197,96.107,574.068,570.056,0.0
56482.0,STARLINK-6220,PAYLOAD,2024-02-15 22:17:15,14.98328797,0.0002901,69.9994,222.4065,271.0241,89.0586,9.5215e-06,2.1e-07,0.0,0 STARLINK-6220,1 56482U 23064AL  24046.92864979  .00000021  00000-0  95215-5 0  9990,2 56482  69.9994 222.4065 0002901 271.0241  89.0586 14.98328797 42980,6950.197,96.107,574.078,570.045,0.0
56482.0,STARLINK-6220,PAYLOAD,2024-02-16 12:42:27,14.98332442,0.0002894,69.9994,220.8915,270.9306,89.1522,-1.7622e-05,-3.03e-06,0.0,0 STARLINK-6220,1 56482U 23064AL  24047.52948793 -.00000303  00000-0 -17622-4 0  9994,2 56482  69.9994 220.8915 0002894 270.9306  89.1522 14.98332442 43431,6950.185,96.107,574.062,570.039,0.0
